CUTE-1 (CO-55)          
1 27844U 03031E   23025.55332624  .00000569  00000+0  27417-3 0  9997
2 27844  98.6796  34.9019 0009963 172.9314 187.2006 14.22602611 15456
CUBESAT XI-IV (CO-57)   
1 27848U 03031J   23026.00890067  .00000488  00000+0  24008-3 0  9995
2 27848  98.6836  35.8153 0009587 186.0770 174.0293 14.22138883 15343
CUBESAT XI-V            
1 28895U 05043F   23025.35591803  .00002765  00000+0  52506-3 0  9990
2 28895  98.1315 158.7760 0016782 159.1073 201.0819 14.64904609919895
CUTE-1.7+APD II (CO-65) 
1 32785U 08021C   23025.84447470  .00005494  00000+0  56420-3 0  9997
2 32785  97.6885 355.1602 0011630 209.0199 151.0374 14.90732955799600
AAUSAT-II               
1 32788U 08021F   23025.93088229  .00011888  00000+0  95611-3 0  9992
2 32788  97.5549   8.9818 0010388  98.0279 262.2124 15.00096337801853
DELFI-C3 (DO-64)        
1 32789U 08021G   23025.81201069  .00036309  00000+0  16096-2 0  9993
2 32789  97.3209  49.7768 0006411 265.4886  94.5618 15.21495250805632
SEEDS II (CO-66)        
1 32791U 08021J   23025.83673470  .00006846  00000+0  64042-3 0  9995
2 32791  97.6398   0.4413 0013020 160.7278 199.4437 14.94349639800383
SWISSCUBE               
1 35932U 09051B   23026.08494338  .00001739  00000+0  39534-3 0  9995
2 35932  98.5409 252.9416 0008672  83.5579 276.6605 14.57251098708557
BEESAT-1                
1 35933U 09051C   23025.55976829  .00001502  00000+0  34315-3 0  9997
2 35933  98.5343 253.8637 0006859  95.3423 264.8557 14.57217617708514
ITUPSAT1                
1 35935U 09051E   23025.57715322  .00001380  00000+0  32252-3 0  9992
2 35935  98.5444 253.8753 0009130  99.7519 260.4709 14.56300627708206
TISAT 1                 
1 36799U 10035E   23026.09156870  .00007181  00000+0  67174-3 0  9996
2 36799  98.1552 250.1731 0012960  83.6115 276.6580 14.94365177681193
M-CUBED & EXP-1 PRIME   
1 37855U 11061F   23025.78329711  .00019131  00000+0  73354-3 0  9996
2 37855 101.7102 268.8756 0138556 113.5723 248.0118 15.18066303614899
AEROCUBE 4.5A           
1 38767U 12048K   23025.74599175  .00016040  00000+0  10906-2 0  9993
2 38767  64.6653 131.7030 0150805 200.5539 158.9469 14.97632471184033
AEROCUBE 4.5B           
1 38768U 12048L   23025.52249495  .00016501  00000+0  99831-3 0  9994
2 38768  64.6653  81.3591 0132808 195.6210 164.0794 15.03623407184484
STRAND-1                
1 39090U 13009E   23025.81289700  .00000581  00000+0  21694-3 0  9999
2 39090  98.3915 223.0373 0008558 335.7192  24.3590 14.35428478519299
BRITE-AUSTRIA           
1 39091U 13009F   23025.80271025  .00000374  00000+0  14511-3 0  9990
2 39091  98.3936 222.2325 0010081 341.9263  18.1563 14.35369789519327
SOMP                    
1 39134U 13015E   23025.79438853  .00048717  00000+0  12514-2 0  9990
2 39134  64.8577  47.9113 0024054 254.8926 104.9549 15.38723423540925
BEESAT-3                
1 39135U 13015F   23025.61105429  .00030431  00000+0  10008-2 0  9992
2 39135  64.8629  91.1196 0030891 253.0872 106.6874 15.30952223540028
BEESAT-2                
1 39136U 13015G   23025.57232125  .00027661  00000+0  96289-3 0  9999
2 39136  64.8721 100.9896 0026321 289.3211  70.5075 15.29278555539791
NEE-01 PEGASO           
1 39151U 13018B   23026.09497967  .00003801  00000+0  48810-3 0  9991
2 39151  97.9994 136.2452 0015376 252.5856 107.3676 14.81722722526645
ESTCUBE 1               
1 39161U 13021C   23026.13666835  .00003067  00000+0  47860-3 0  9991
2 39161  97.8895 102.4122 0010405  68.1121 292.1194 14.73548616522258
POPACS 1                
1 39268U 13055D   23025.34993787  .00021549  00000+0  51911-3 0  9994
2 39268  80.9974 359.3827 0535468 246.3578 108.0557 14.59158861485551
POPACS 2                
1 39269U 13055E   23025.79363892  .00015150  00000+0  39865-3 0  9997
2 39269  81.0083  63.0102 0626980  51.4622 314.1067 14.38075330482071
POPACS 3                
1 39270U 13055F   23025.47563080  .00013465  00000+0  39888-3 0  9997
2 39270  81.0127 100.4668 0676605 157.1320 206.1579 14.25070907460214
ZACUBE-1 (TSHEPISOSAT)  
1 39417U 13066B   23025.85596028  .00006274  00000+0  74763-3 0  9993
2 39417  97.6681 352.8173 0057468  36.7341 323.7791 14.83461044496080
WNISAT-1                
1 39423U 13066H   23026.11411626  .00001514  00000+0  30439-3 0  9994
2 39423  97.7214 255.8181 0173662 161.3394 199.4257 14.53815514486793
TRITON-1                
1 39427U 13066M   23026.02308472  .00004434  00000+0  68490-3 0  9994
2 39427  97.8302 317.4133 0108545 273.0588  85.8202 14.69892793491652
DELFI-N3XT              
1 39428U 13066N   23025.80847295  .00007796  00000+0  11658-2 0  9998
2 39428  97.8293 315.9294 0112757 286.6510  72.2343 14.70719632491195
GOMX-1                  
1 39430U 13066Q   23025.98072861  .00003218  00000+0  57017-3 0  9994
2 39430  97.7964 285.3547 0149035  63.0959 298.5381 14.60899729488776
CUBEBUG-2 (LO-74)       
1 39440U 13066AA  23025.80512556  .00003986  00000+0  53135-3 0  9995
2 39440  97.7571 339.4874 0078679 129.2278 231.5952 14.78003081493111
NEE-02 KRYSAOR          
1 39441U 13066AB  23025.81154039  .00002610  00000+0  36278-3 0  9997
2 39441  97.7676 336.5181 0080577 144.3598 216.3031 14.76451307492833
FUNCUBE-1 (AO-73)       
1 39444U 13066AE  23025.83116947  .00007137  00000+0  82359-3 0  9998
2 39444  97.6541 355.2473 0055672  23.7256 336.6508 14.84800841494508
UWE-3                   
1 39446U 13066AG  23025.84572596  .00004707  00000+0  59540-3 0  9993
2 39446  97.7178 345.8002 0068984  84.2466 276.6607 14.80602816493358
AEROCUBE 5A             
1 39465U 13072D   23025.82599187  .00158114  00000+0  47639-2 0  9991
2 39465 120.4776  76.4224 0140164 152.0989 208.7686 15.24242172183145
BRITE-CA1 (TORONTO)     
1 40020U 14033L   23025.94864020  .00001967  00000+0  33781-3 0  9999
2 40020  97.8020 179.0150 0084973 274.0771  85.0725 14.67426647460392
DUCHIFAT-1              
1 40021U 14033M   23025.81205076  .00009452  00000+0  86835-3 0  9991
2 40021  98.0414 345.6604 0012402  33.8725 326.3284 14.94983625467893
NANOSATC-BR1            
1 40024U 14033Q   23025.80779806  .00008726  00000+0  83322-3 0  9991
2 40024  98.0127 337.7716 0012474  41.8003 318.4166 14.93479510467141
QB50P1                  
1 40025U 14033R   23026.05444147  .00007584  00000+0  75336-3 0  9994
2 40025  97.9831 330.6107 0013076  50.6207 309.6167 14.91944013467440
QB50P2                  
1 40032U 14033Y   23025.76892084  .00006747  00000+0  68249-3 0  9991
2 40032  97.9570 324.7987 0012486  49.4021 310.8281 14.91262148466736
PERSEUS-M2              
1 40037U 14033AD  23025.72139912  .00002654  00000+0  29701-3 0  9999
2 40037  97.9048 311.8045 0015575  70.9218 289.3683 14.87669548466165
PERSEUS-M1              
1 40039U 14033AF  23026.04423487  .00002762  00000+0  31181-3 0  9995
2 40039  97.8926 309.4465 0015426  69.2052 291.0815 14.87285518466597
POLYITAN-1              
1 40042U 14033AJ  23026.11419729  .00008827  00000+0  86783-3 0  9997
2 40042  97.9943 332.2146 0014800  41.8906 318.3441 14.92290746467347
TIGRISAT                
1 40043U 14033AK  23025.76556589  .00003337  00000+0  48188-3 0  9992
2 40043  97.6551 208.1399 0058947 154.7125 205.6992 14.75666930462402
AEROCUBE 6A             
1 40045U 14033AM  23025.52129192  .00004381  00000+0  60862-3 0  9997
2 40045  97.6552 217.2857 0056599 141.8235 218.7006 14.77243836462550
AEROCUBE 6B             
1 40046U 14033AN  23025.76204926  .00005606  00000+0  76525-3 0  9997
2 40046  97.6484 215.9287 0055231 138.6756 221.8655 14.77929037462606
UKUBE-1                 
1 40074U 14037F   23025.98338035  .00006623  00000+0  75278-3 0  9999
2 40074  98.3577 283.0824 0003234 304.7371  55.3501 14.86619936463117
BRITE-PL2 (HEWELIUSZ)   
1 40119U 14049B   23025.98268589  .00002742  00000+0  32132-3 0  9998
2 40119  97.8811 124.4024 0015922 231.4312 128.5478 14.85754153457131
FIREBIRD 4              
1 40378U 15003C   23025.72735219  .00062483  00000+0  13204-2 0  9993
2 40378  99.0789 306.8596 0076527 348.2097  11.7350 15.41808426442504
GRIFEX                  
1 40379U 15003D   23025.97075079  .00032618  00000+0  96387-3 0  9993
2 40379  99.0843 289.8978 0102294  38.5041 322.3434 15.29767610441563
CP10 (EXOCUBE)          
1 40380U 15003E   23025.68626161  .00020584  00000+0  69683-3 0  9995
2 40380  99.0932 281.0084 0114105  67.7285 293.6000 15.24528066440950
EXACTVIEW 9             
1 40936U 15052G   23024.46517748  .00003629  00000+0  40578-3 0  9994
2 40936   6.0049  35.5856 0009826  45.0500 315.0424 14.77752265395950
AEROCUBE 5C             
1 40965U 15058B   23025.61972178  .00003851  00000+0  43638-3 0  9999
2 40965  64.7735 116.4581 0167822 125.4865 236.2032 14.78165076181767
AEROCUBE 7              
1 40966U 15058C   23025.70888964  .00004383  00000+0  48790-3 0  9994
2 40966  64.7726 112.9555 0165628 125.2858 236.3869 14.78891650181787
ATHENOXAT 1             
1 41168U 15077C   23026.20958564  .00061426  00000+0  19473-2 0  9996
2 41168  14.9834 230.3652 0006711 136.7645  10.6040 15.30852019394358
GALASSIA                
1 41170U 15077E   23025.23099748  .00030321  00000+0  10721-2 0  9998
2 41170  14.9863 232.5819 0008298 154.3341 205.7394 15.27020372394245
VELOX-II                
1 41171U 15077F   23025.47229772  .00020759  00000+0  88671-3 0  9991
2 41171  14.9916 317.4245 0007360 329.4573  30.5320 15.20427783393390
HORYU-4                 
1 41340U 16012D   23025.69072711  .00009352  00000+0  63164-3 0  9998
2 41340  31.0057  18.1559 0012856 253.3521 106.5704 15.05256578381214
E-ST@R-II               
1 41459U 16025D   23026.07770517  .00036846  00000+0  13545-2 0  9990
2 41459  98.1904 213.9264 0127118 230.6098 128.3732 15.20445396371232
AAUSAT 4                
1 41460U 16025E   23026.10931462  .00071491  00000+0  19812-2 0  9992
2 41460  98.1728 222.8033 0097338 197.3337 284.5411 15.31986202371851
